NORAD_CAT_ID,OBJECT_NAME,OBJECT_TYPE,EPOCH,MEAN_MOTION,ECCENTRICITY,INCLINATION,RA_OF_ASC_NODE,ARG_OF_PERICENTER,MEAN_ANOMALY,BSTAR,MEAN_MOTION_DOT,MEAN_MOTION_DDOT,TLE_LINE0,TLE_LINE1,TLE_LINE2,SEMIMAJOR_AXIS,PERIOD,APOGEE,PERIGEE,DECAYED
53806.0,STARLINK-4768,PAYLOAD,2023-10-17 11:37:53,15.08865294,0.0001028,53.2166,213.4214,34.9314,325.1746,0.0016914,0.00026752,0.0,0 STARLINK-4768,1 53806U 22111AK  23290.48464320  .00026752  00000-0  16914-2 0  9991,2 53806  53.2166 213.4214 0001028  34.9314 325.1746 15.08865294 61248,6917.803,95.436,540.379,538.957,0.0
53806.0,STARLINK-4768,PAYLOAD,2023-10-18 01:56:21,15.08852677,0.0001302,53.2163,210.7457,76.4845,283.6292,0.0015651,0.00024717,0.0,0 STARLINK-4768,1 53806U 22111AK  23291.08080489  .00024717  00000-0  15651-2 0  9994,2 53806  53.2163 210.7457 0001302  76.4845 283.6292 15.08852677 62144,6917.842,95.437,540.607,538.806,0.0
53806.0,STARLINK-4768,PAYLOAD,2023-10-18 11:28:40,15.08852888,0.000261,53.2164,208.9604,87.5305,272.5986,0.00045747,7.003e-05,0.0,0 STARLINK-4768,1 53806U 22111AK  23291.47824898  .00007003  00000-0  45747-3 0  9996,2 53806  53.2164 208.9604 0002610  87.5305 272.5986 15.08852888 61392,6917.841,95.437,541.512,537.9,0.0
53806.0,STARLINK-4768,PAYLOAD,2023-10-19 01:47:08,15.08864504,0.0002184,53.2158,206.284,85.9171,274.207,0.0017252,0.00027294,0.0,0 STARLINK-4768,1 53806U 22111AK  23292.07440355  .00027294  00000-0  17252-2 0  9998,2 53806  53.2158 206.2840 0002184  85.9171 274.2070 15.08864504 61488,6917.805,95.436,541.181,538.16,0.0
53806.0,STARLINK-4768,PAYLOAD,2023-10-19 17:40:58,15.08880027,0.0001267,53.2155,203.3126,104.8057,255.3075,0.0014336,0.00022626,0.0,0 STARLINK-4768,1 53806U 22111AK  23292.73679156  .00022626  00000-0  14336-2 0  9998,2 53806  53.2155 203.3126 0001267 104.8057 255.3075 15.08880027 61589,6917.758,95.435,540.5,538.747,0.0
53806.0,STARLINK-4768,PAYLOAD,2023-10-19 22:27:07,15.08879459,0.0001134,53.2157,202.419,99.8519,260.2602,0.0011041,0.00017346,0.0,0 STARLINK-4768,1 53806U 22111AK  23292.93550776  .00017346  00000-0  11041-2 0  9999,2 53806  53.2157 202.4190 0001134  99.8519 260.2602 15.08879459 62423,6917.76,95.435,540.409,538.84,0.0
53806.0,STARLINK-4768,PAYLOAD,2023-10-20 03:13:16,15.08883896,0.0001245,53.215,201.527,99.7267,260.3865,0.00094714,0.00014836,0.0,0 STARLINK-4768,1 53806U 22111AK  23293.13422182  .00014836  00000-0  94714-3 0  9991,2 53806  53.2150 201.5270 0001245  99.7267 260.3865 15.08883896 61642,6917.746,95.435,540.472,538.75,0.0
53806.0,STARLINK-4768,PAYLOAD,2023-10-20 22:17:56,15.08817585,0.0001524,53.2148,197.9588,101.9112,258.2051,-0.00019844,-3.443e-05,0.0,0 STARLINK-4768,1 53806U 22111AK  23293.92912302 -.00003443  00000-0 -19844-3 0  9991,2 53806  53.2148 197.9588 0001524 101.9112 258.2051 15.08817585 62572,6917.949,95.439,540.868,538.76,0.0
53806.0,STARLINK-4768,PAYLOAD,2023-10-21 01:28:42,15.08811464,0.0001423,53.2148,197.3643,107.9592,252.1555,-0.00011231,-2.073e-05,0.0,0 STARLINK-4768,1 53806U 22111AK  23294.06160676 -.00002073  00000-0 -11231-3 0  9996,2 53806  53.2148 197.3643 0001423 107.9592 252.1555 15.08811464 61788,6917.968,95.439,540.817,538.848,0.0
53806.0,STARLINK-4768,PAYLOAD,2023-10-21 11:01:02,15.08821068,0.0001458,53.2149,195.5797,83.4691,276.6467,0.0009417,0.00014723,0.0,0 STARLINK-4768,1 53806U 22111AK  23294.45905529  .00014723  00000-0  94170-3 0  9999,2 53806  53.2149 195.5797 0001458  83.4691 276.6467 15.08821068 62656,6917.938,95.439,540.812,538.795,0.0
53806.0,STARLINK-4768,PAYLOAD,2023-10-21 22:08:44,15.08856537,0.00015,53.2152,193.4989,71.6255,288.49,0.001589,0.00025103,0.0,0 STARLINK-4768,1 53806U 22111AK  23294.92273202  .00025103  00000-0  15890-2 0  9992,2 53806  53.2152 193.4989 0001500  71.6255 288.4900 15.08856537 62723,6917.83,95.437,540.733,538.657,0.0
53806.0,STARLINK-4768,PAYLOAD,2023-10-21 23:44:07,15.08867383,0.0001549,53.2149,193.202,71.9506,288.1655,0.0016789,0.00026553,0.0,0 STARLINK-4768,1 53806U 22111AK  23294.98897008  .00026553  00000-0  16789-2 0  9992,2 53806  53.2149 193.2020 0001549  71.9506 288.1655 15.08867383 61924,6917.797,95.436,540.733,538.59,0.0
53806.0,STARLINK-4768,PAYLOAD,2023-10-22 10:51:48,15.08857455,0.0001877,53.2162,191.1202,79.2256,280.8947,0.0004071,6.2e-05,0.0,0 STARLINK-4768,1 53806U 22111AK  23295.45264844  .00006200  00000-0  40710-3 0  9990,2 53806  53.2162 191.1202 0001877  79.2256 280.8947 15.08857455 61994,6917.827,95.436,540.991,538.394,0.0
53806.0,STARLINK-4768,PAYLOAD,2023-10-22 20:24:08,15.08833076,0.0001604,53.2154,189.3362,90.6955,269.4221,0.0011807,0.00018549,0.0,0 STARLINK-4768,1 53806U 22111AK  23295.85009408  .00018549  00000-0  11807-2 0  9990,2 53806  53.2154 189.3362 0001604  90.6955 269.4221 15.08833076 62051,6917.902,95.438,540.876,538.657,0.0
53806.0,STARLINK-4768,PAYLOAD,2023-10-22 21:59:31,15.08829383,0.0001483,53.2152,189.0386,89.1353,270.9809,0.0011023,0.00017294,0.0,0 STARLINK-4768,1 53806U 22111AK  23295.91633379  .00017294  00000-0  11023-2 0  9993,2 53806  53.2152 189.0386 0001483  89.1353 270.9809 15.08829383 62877,6917.913,95.438,540.804,538.752,0.0
53806.0,STARLINK-4768,PAYLOAD,2023-10-23 20:14:55,15.08845099,0.0001617,53.2163,184.8736,96.9577,263.1599,0.00091834,0.0001436,0.0,0 STARLINK-4768,1 53806U 22111AK  23296.84369882  .00014360  00000-0  91834-3 0  9991,2 53806  53.2163 184.8736 0001617  96.9577 263.1599 15.08845099 62203,6917.865,95.437,540.848,538.611,0.0
53806.0,STARLINK-4768,PAYLOAD,2023-10-23 21:50:18,15.08847086,0.0001629,53.2164,184.5762,97.2378,262.8799,0.00091927,0.00014375,0.0,0 STARLINK-4768,1 53806U 22111AK  23296.90993866  .00014375  00000-0  91927-3 0  9992,2 53806  53.2164 184.5762 0001629  97.2378 262.8799 15.08847086 63023,6917.859,95.437,540.851,538.597,0.0
53806.0,STARLINK-4768,PAYLOAD,2023-10-24 02:36:27,15.08854433,0.000152,53.2163,183.6861,92.5014,267.6153,0.00098146,0.00015373,0.0,0 STARLINK-4768,1 53806U 22111AK  23297.10865709  .00015373  00000-0  98146-3 0  9998,2 53806  53.2163 183.6861 0001520  92.5014 267.6153 15.08854433 63051,6917.836,95.437,540.753,538.65,0.0
53806.0,STARLINK-4768,PAYLOAD,2023-10-25 21:31:52,15.08843387,0.000147,53.2163,175.6563,84.0478,276.0682,4.6923e-05,4.59e-06,0.0,0 STARLINK-4768,1 53806U 22111AK  23298.89713423  .00000459  00000-0  46923-4 0  9996,2 53806  53.2163 175.6563 0001470  84.0478 276.0682 15.08843387 62512,6917.87,95.437,540.752,538.718,0.0
53806.0,STARLINK-4768,PAYLOAD,2023-10-25 23:07:15,15.08846501,0.000151,53.2168,175.3618,93.4021,266.7144,7.9784e-05,9.82e-06,0.0,0 STARLINK-4768,1 53806U 22111AK  23298.96337309  .00000982  00000-0  79784-4 0  9991,2 53806  53.2168 175.3618 0001510  93.4021 266.7144 15.08846501 63339,6917.861,95.437,540.77,538.681,0.0
53806.0,STARLINK-4768,PAYLOAD,2023-10-26 00:42:38,15.08848506,0.0001513,53.2169,175.0638,90.1059,270.0106,9.9326e-05,1.293e-05,0.0,0 STARLINK-4768,1 53806U 22111AK  23299.02961194  .00001293  00000-0  99326-4 0  9994,2 53806  53.2169 175.0638 0001513  90.1059 270.0106 15.08848506 63341,6917.854,95.437,540.766,538.673,0.0
53806.0,STARLINK-4768,PAYLOAD,2023-10-26 21:22:39,15.08844754,0.0001519,53.2164,171.1978,95.0373,265.0793,4.8887e-05,4.9e-06,0.0,0 STARLINK-4768,1 53806U 22111AK  23299.89073233  .00000490  00000-0  48887-4 0  9991,2 53806  53.2164 171.1978 0001519  95.0373 265.0793 15.08844754 63470,6917.866,95.437,540.782,538.68,0.0
53806.0,STARLINK-4768,PAYLOAD,2023-10-27 00:33:25,15.08847489,0.0001508,53.2161,170.6009,78.9132,281.203,9.6235e-05,1.244e-05,0.0,0 STARLINK-4768,1 53806U 22111AK  23300.02321085  .00001244  00000-0  96235-4 0  9998,2 53806  53.2161 170.6009 0001508  78.9132 281.2030 15.08847489 62681,6917.857,95.437,540.766,538.679,0.0
53806.0,STARLINK-4768,PAYLOAD,2023-10-27 21:13:26,15.08843749,0.0001471,53.2154,166.7351,74.5519,285.5635,3.9227e-05,3.36e-06,0.0,0 STARLINK-4768,1 53806U 22111AK  23300.88433274  .00000336  00000-0  39227-4 0  9995,2 53806  53.2154 166.7351 0001471  74.5519 285.5635 15.08843749 62817,6917.869,95.437,540.752,538.716,0.0
53806.0,STARLINK-4768,PAYLOAD,2023-10-28 00:24:12,15.08845084,0.0001446,53.216,166.142,92.8844,267.2314,7.9962e-05,9.85e-06,0.0,0 STARLINK-4768,1 53806U 22111AK  23301.01681060  .00000985  00000-0  79962-4 0  9999,2 53806  53.2160 166.1420 0001446  92.8844 267.2314 15.08845084 63648,6917.865,95.437,540.73,538.73,0.0
53806.0,STARLINK-4768,PAYLOAD,2023-10-28 21:04:13,15.08837525,0.0001497,53.2156,162.2736,94.2211,265.8953,2.5031e-06,-2.48e-06,0.0,0 STARLINK-4768,1 53806U 22111AK  23301.87793752 -.00000248  00000-0  25031-5 0  9997,2 53806  53.2156 162.2736 0001497  94.2211 265.8953 15.08837525 62968,6917.888,95.438,540.789,538.717,0.0
53806.0,STARLINK-4768,PAYLOAD,2023-10-29 14:33:28,15.08834671,0.0001516,53.216,159.0035,100.6349,259.4814,0.00041538,6.328e-05,0.0,0 STARLINK-4768,1 53806U 22111AK  23302.60658111  .00006328  00000-0  41538-3 0  9990,2 53806  53.2160 159.0035 0001516 100.6349 259.4814 15.08834671 63881,6917.897,95.438,540.81,538.713,0.0
53806.0,STARLINK-4768,PAYLOAD,2023-10-29 20:55:00,15.08850599,0.0001459,53.2149,157.8152,92.7561,267.3598,0.00034131,5.15e-05,0.0,0 STARLINK-4768,1 53806U 22111AK  23302.87153571  .00005150  00000-0  34131-3 0  9992,2 53806  53.2149 157.8152 0001459  92.7561 267.3598 15.08850599 63926,6917.848,95.437,540.722,538.704,0.0
53806.0,STARLINK-4768,PAYLOAD,2023-10-30 00:05:47,15.08849557,0.0001509,53.2148,157.2199,97.124,262.9924,0.00060404,9.341e-05,0.0,0 STARLINK-4768,1 53806U 22111AK  23303.00401718  .00009341  00000-0  60404-3 0  9995,2 53806  53.2148 157.2199 0001509  97.1240 262.9924 15.08849557 63138,6917.851,95.437,540.76,538.672,0.0
53806.0,STARLINK-4768,PAYLOAD,2023-10-30 19:10:24,15.08841274,0.0001424,53.2149,153.6505,96.9567,263.1587,0.00014337,1.995e-05,0.0,0 STARLINK-4768,1 53806U 22111AK  23303.79890029  .00001995  00000-0  14337-3 0  9999,2 53806  53.2149 153.6505 0001424  96.9567 263.1587 15.08841274 63254,6917.876,95.437,540.727,538.756,0.0
